ONEWEB-0379             
1 49305U 21090AC  25046.49300568 -.00000046  00000+0 -15750-3 0  9997
2 49305  87.9021  26.4698 0001837  88.3856 271.7484 13.14503973163629
ONEWEB-0380             
1 49306U 21090AD  25046.51713999  .00000016  00000+0  86146-5 0  9991
2 49306  87.9161  41.7105 0001732  82.5920 277.5410 13.19727699162237
ONEWEB-0381             
1 49307U 21090AE  25046.42093632  .00000067  00000+0  13335-3 0  9991
2 49307  87.9294  11.2908 0001769  77.9324 282.2007 13.20773201165571
ONEWEB-0382             
1 49308U 21090AF  25046.40831550  .00000090  00000+0  18979-3 0  9994
2 49308  87.9294  11.2886 0001442  85.5905 274.5393 13.20771601165568
ONEWEB-0383             
1 49309U 21090AG  25046.48662506  .00000029  00000+0  44176-4 0  9997
2 49309  87.9019  26.4542 0001717  89.6214 270.5112 13.14501254163655
ONEWEB-0384             
1 49310U 21090AH  25046.40513581  .00000148  00000+0  33153-3 0  9993
2 49310  87.9294  11.3043 0001384  89.9718 270.1574 13.20771858165570
ONEWEB-0385             
1 49311U 21090AJ  25046.40043417  .00000045  00000+0  79842-4 0  9992
2 49311  87.9297  11.3059 0001720  85.1870 274.9459 13.20772476165540
ONEWEB-0386             
1 49312U 21090AK  25046.41779056  .00000111  00000+0  24134-3 0  9996
2 49312  87.9288  11.2811 0001541  87.6195 272.5115 13.20772679165564
